STARLINK-34054          
1 64141U 25111U   26204.55876320  .00014038  00000+0  51874-3 0  9999
2 64141  43.0039  30.4786 0000767 278.4960  81.5805 15.27576965 66249
STARLINK-34195          
1 64142U 25111V   26204.22025947  .00010328  00000+0  38424-3 0  9999
2 64142  42.9963  32.2363 0001796 285.9931  74.0723 15.27585642 66191
STARLINK-34133          
1 64143U 25111W   26204.54334294  .00022236  00000+0  81493-3 0  9998
2 64143  43.0034  30.3682 0000701 245.6058 114.4720 15.27588567 66245
STARLINK-34181          
1 64144U 25111X   26204.56518799  .00016955  00000+0  62415-3 0  9999
2 64144  43.0012  30.5257 0000119  20.6472 339.4385 15.27584800 66248
STARLINK-34186          
1 64145U 25111Y   26204.57417890  .00019640  00000+0  72127-3 0  9996
2 64145  43.0014  30.5918 0001306 222.6499 137.4251 15.27581635 66248
STARLINK-34314          
1 64146U 25112A   26204.11100582  .00002267  00000+0  16096-3 0  9995
2 64146  97.2834 252.5755 0001776 112.2948 247.8469 15.05659192 63681
STARLINK-33926          
1 64147U 25112B   26204.55131241  .00005919  00000+0  41358-3 0  9996
2 64147  97.2838 253.0491 0002014 116.3465 243.7970 15.05669397 63752
STARLINK-34213          
1 64148U 25112C   26204.58451603  .00002631  00000+0  18609-3 0  9998
2 64148  97.2843 253.0041 0001416 129.6962 230.4391 15.05666005 63757
STARLINK-33924          
1 64149U 25112D   26204.59282304  .00003451  00000+0  24287-3 0  9990
2 64149  97.2839 252.9918 0001254 104.0833 256.0535 15.05661752 63756
STARLINK-34209          
1 64150U 25112E   26204.14423761  .00002326  00000+0  16499-3 0  9993
2 64150  97.2841 252.6820 0002672  96.5629 263.5903 15.05657144 63698
STARLINK-34338          
1 64151U 25112F   26204.60114378  .00004849  00000+0  33975-3 0  9996
2 64151  97.2838 253.1339 0002202  90.6722 269.4758 15.05650059 63763
STARLINK-34348          
1 64152U 25112G   26204.10270035  .00006020  00000+0  42066-3 0  9999
2 64152  97.2825 252.5884 0001565 126.2183 233.9190 15.05659674 63685
STARLINK-34345          
1 64153U 25112H   26204.09439105  .00002911  00000+0  20548-3 0  9999
2 64153  97.2827 252.5995 0001400 135.4537 224.6803 15.05661349 63684
STARLINK-33945          
1 64154U 25112J   26204.15313086  .00002027  00000+0  14429-3 0  9995
2 64154  97.2829 261.1537 0001418 120.2512 239.8856 15.05658186 64243
STARLINK-34346          
1 64155U 25112K   26204.14700594  .00002814  00000+0  19879-3 0  9997
2 64155  97.2843 252.6874 0001844 103.5239 256.6194 15.05657599 63699
STARLINK-34277          
1 64156U 25112L   26204.57898462  .00001919  00000+0  13686-3 0  9992
2 64156  97.2835 253.0203 0001532  94.9685 265.1718 15.05660369 63757
STARLINK-34343          
1 64157U 25112M   26204.38388881  .00018818  00000+0  12964-2 0  9994
2 64157  97.6084 255.0795 0017604 148.2934 211.9357 15.05770640 63700
STARLINK-34166          
1 64158U 25112N   26204.59559430  .00002430  00000+0  17223-3 0  9995
2 64158  97.2833 252.9947 0002454 111.7630 248.3860 15.05660381 63757
STARLINK-34344          
1 64159U 25112P   26204.38791428  .00000966  00000+0  70853-4 0  9999
2 64159  97.2826 252.8176 0002515 112.2357 247.9138 15.05656131 63721
STARLINK-34339          
1 64160U 25112Q   26204.57067698  .00002298  00000+0  16305-3 0  9998
2 64160  97.2829 253.0324 0001721 125.4690 234.6698 15.05658779 63755
STARLINK-34341          
1 64161U 25112R   26204.55406452  .00003949  00000+0  27735-3 0  9995
2 64161  97.2840 253.0544 0001368 115.3049 244.8321 15.05661372 63755
STARLINK-34317          
1 64162U 25112S   26204.40453615  .00001726  00000+0  12350-3 0  9991
2 64162  97.2827 252.9478 0001381 121.3371 238.7992 15.05655509 63734
STARLINK-34340          
1 64163U 25112T   26204.11654188  .00003138  00000+0  22125-3 0  9998
2 64163  97.2830 252.5750 0002209 137.0919 223.0481 15.05661267 63682
STARLINK-34263          
1 64164U 25112U   26204.10823900  .00001760  00000+0  12580-3 0  9991
2 64164  97.2838 252.5908 0002207 103.5895 256.5578 15.05659448 63681
STARLINK-33793          
1 64165U 25112V   26204.56513767  .00002125  00000+0  15111-3 0  9998
2 64165  97.2816 253.0386 0001489 111.5770 248.5617 15.05656734 63754
STARLINK-34313          
1 64166U 25112W   26204.09162233  .00003838  00000+0  26962-3 0  9993
2 64166  97.2828 252.6128 0001962 136.5200 223.6182 15.05664945 63684
STARLINK-34309          
1 64167U 25112X   26204.41560864  .00002506  00000+0  17747-3 0  9994
2 64167  97.2849 252.9375 0001037 126.2190 233.9133 15.05658055 63733
STARLINK-34303          
1 64168U 25112Y   26204.14146812  .00003240  00000+0  22829-3 0  9991
2 64168  97.2851 252.6982 0001310 136.4660 223.6671 15.05661019 63699
STARLINK-34175          
1 64169U 25112Z   26204.59005725  .00002981  00000+0  21038-3 0  9990
2 64169  97.2834 253.0023 0001711 120.2571 239.8827 15.05659681 63750
STARLINK-34177          
1 64170U 25113A   26204.17581296  .00016453  00000+0  54059-3 0  9997
2 64170  53.1572 180.7561 0001334 102.5878 257.5273 15.31712392 65829
