OBJECT_NAME,OBJECT_ID,EPOCH,MEAN_MOTION,ECCENTRICITY,INCLINATION,RA_OF_ASC_NODE,ARG_OF_PERICENTER,MEAN_ANOMALY,EPHEMERIS_TYPE,CLASSIFICATION_TYPE,NORAD_CAT_ID,ELEMENT_SET_NO,REV_AT_EPOCH,BSTAR,MEAN_MOTION_DOT,MEAN_MOTION_DDOT
STARLINK-34054,2025-111U,2026-07-23T13:24:37.140480,15.27576965,.0000767,43.0039,30.4786,278.4960,81.5805,0,U,64141,999,6624,.51873818E-3,.14038E-3,0
STARLINK-34195,2025-111V,2026-07-23T05:17:10.418208,15.27585642,.00017969,42.9963,32.2363,285.9931,74.0723,0,U,64142,999,6619,.38424054E-3,.10328E-3,0
STARLINK-34133,2025-111W,2026-07-23T13:02:24.830016,15.27588567,.00007019,43.0034,30.3682,245.6058,114.4720,0,U,64143,999,6624,.81492877E-3,.22236E-3,0
STARLINK-34181,2025-111X,2026-07-23T13:33:52.242336,15.27584800,.00001194,43.0012,30.5257,20.6472,339.4385,0,U,64144,999,6624,.62414672E-3,.16955E-3,0
STARLINK-34186,2025-111Y,2026-07-23T13:46:49.056960,15.27581635,.00013064,43.0014,30.5918,222.6499,137.4251,0,U,64145,999,6624,.72126985E-3,.1964E-3,0
STARLINK-34314,2025-112A,2026-07-23T02:39:50.902848,15.05659192,.00017765,97.2834,252.5755,112.2948,247.8469,0,U,64146,999,6368,.16096084E-3,.2267E-4,0
STARLINK-33926,2025-112B,2026-07-23T13:13:53.392224,15.05669397,.00020149,97.2838,253.0491,116.3465,243.7970,0,U,64147,999,6375,.4135762E-3,.5919E-4,0
STARLINK-34213,2025-112C,2026-07-23T14:01:42.184992,15.05666005,.00014166,97.2843,253.0041,129.6962,230.4391,0,U,64148,999,6375,.18609037E-3,.2631E-4,0
STARLINK-33924,2025-112D,2026-07-23T14:13:39.910656,15.05661752,.00012545,97.2839,252.9918,104.0833,256.0535,0,U,64149,999,6375,.24287312E-3,.3451E-4,0
STARLINK-34209,2025-112E,2026-07-23T03:27:42.129504,15.05657144,.00026727,97.2841,252.6820,96.5629,263.5903,0,U,64150,999,6369,.16499172E-3,.2326E-4,0
STARLINK-34338,2025-112F,2026-07-23T14:25:38.822592,15.05650059,.0002202,97.2838,253.1339,90.6722,269.4758,0,U,64151,999,6376,.33975474E-3,.4849E-4,0
STARLINK-34348,2025-112G,2026-07-23T02:27:53.310240,15.05659674,.00015651,97.2825,252.5884,126.2183,233.9190,0,U,64152,999,6368,.42065791E-3,.602E-4,0
STARLINK-34345,2025-112H,2026-07-23T02:15:55.386720,15.05661349,.00014008,97.2827,252.5995,135.4537,224.6803,0,U,64153,999,6368,.20548074E-3,.2911E-4,0
STARLINK-33945,2025-112J,2026-07-23T03:40:30.506304,15.05658186,.0001418,97.2829,261.1537,120.2512,239.8856,0,U,64154,999,6424,.14428915E-3,.2027E-4,0
STARLINK-34346,2025-112K,2026-07-23T03:31:41.313216,15.05657599,.00018444,97.2843,252.6874,103.5239,256.6194,0,U,64155,999,6369,.19879092E-3,.2814E-4,0
STARLINK-34277,2025-112L,2026-07-23T13:53:44.271168,15.05660369,.00015323,97.2835,253.0203,94.9685,265.1718,0,U,64156,999,6375,.13685971E-3,.1919E-4,0
STARLINK-34343,2025-112M,2026-07-23T09:12:47.993184,15.05770640,.00176043,97.6084,255.0795,148.2934,211.9357,0,U,64157,999,6370,.12963765E-2,.18818E-3,0
STARLINK-34166,2025-112N,2026-07-23T14:17:39.347520,15.05660381,.00024547,97.2833,252.9947,111.7630,248.3860,0,U,64158,999,6375,.17223297E-3,.243E-4,0
STARLINK-34344,2025-112P,2026-07-23T09:18:35.793792,15.05656131,.00025157,97.2826,252.8176,112.2357,247.9138,0,U,64159,999,6372,.70852927E-4,.966E-5,0
STARLINK-34339,2025-112Q,2026-07-23T13:41:46.491072,15.05658779,.00017219,97.2829,253.0324,125.4690,234.6698,0,U,64160,999,6375,.16304648E-3,.2298E-4,0
STARLINK-34341,2025-112R,2026-07-23T13:17:51.174528,15.05661372,.00013684,97.2840,253.0544,115.3049,244.8321,0,U,64161,999,6375,.27735118E-3,.3949E-4,0
STARLINK-34317,2025-112S,2026-07-23T09:42:31.923360,15.05655509,.00013813,97.2827,252.9478,121.3371,238.7992,0,U,64162,999,6373,.12350175E-3,.1726E-4,0
STARLINK-34340,2025-112T,2026-07-23T02:47:49.218432,15.05661267,.00022091,97.2830,252.5750,137.0919,223.0481,0,U,64163,999,6368,.22125054E-3,.3138E-4,0
STARLINK-34263,2025-112U,2026-07-23T02:35:51.849600,15.05659448,.00022072,97.2838,252.5908,103.5895,256.5578,0,U,64164,999,6368,.12579896E-3,.176E-4,0
STARLINK-33793,2025-112V,2026-07-23T13:33:47.894688,15.05656734,.00014896,97.2816,253.0386,111.5770,248.5617,0,U,64165,999,6375,.15110549E-3,.2125E-4,0
STARLINK-34313,2025-112W,2026-07-23T02:11:56.169312,15.05664945,.00019628,97.2828,252.6128,136.5200,223.6182,0,U,64166,999,6368,.26962033E-3,.3838E-4,0
STARLINK-34309,2025-112X,2026-07-23T09:58:28.586496,15.05658055,.00010371,97.2849,252.9375,126.2190,233.9133,0,U,64167,999,6373,.17747426E-3,.2506E-4,0
STARLINK-34303,2025-112Y,2026-07-23T03:23:42.845568,15.05661019,.000131,97.2851,252.6982,136.4660,223.6671,0,U,64168,999,6369,.22829381E-3,.324E-4,0
STARLINK-34175,2025-112Z,2026-07-23T14:09:40.946400,15.05659681,.00017116,97.2834,253.0023,120.2571,239.8827,0,U,64169,999,6375,.21037956E-3,.2981E-4,0
STARLINK-34177,2025-113A,2026-07-23T04:13:10.239744,15.31712392,.00013347,53.1572,180.7561,102.5878,257.5273,0,U,64170,999,6582,.54058833E-3,.16453E-3,0
